ESEO                    
1 43792U 18099AL  26068.65529582  .00002831  00000+0  20935-3 0  9991
2 43792  97.4113 110.2601 0011063 317.6000  42.4371 15.03914518396849
STARLINK-35174          
1 65615U 25207Z   26068.72545396  .00011236  00000+0  78087-3 0  9997
2 65615  97.6027 138.6483 0000793  94.3438 265.7879 15.05689223 28262
