[{"OBJECT_NAME":"ESEO","OBJECT_ID":"2018-099AL","EPOCH":"2026-03-09T15:43:37.559712","MEAN_MOTION":15.03914518,"ECCENTRICITY":0.00110626,"INCLINATION":97.4113,"RA_OF_ASC_NODE":110.2601,"ARG_OF_PERICENTER":317.6,"MEAN_ANOMALY":42.4371,"EPHEMERIS_TYPE":0,"CLASSIFICATION_TYPE":"U","NORAD_CAT_ID":43792,"ELEMENT_SET_NO":999,"REV_AT_EPOCH":39684,"BSTAR":0.00020934561,"MEAN_MOTION_DOT":2.831e-5,"MEAN_MOTION_DDOT":0},{"OBJECT_NAME":"STARLINK-35174","OBJECT_ID":"2025-207Z","EPOCH":"2026-03-09T17:24:39.222144","MEAN_MOTION":15.05689223,"ECCENTRICITY":7.935e-5,"INCLINATION":97.6027,"RA_OF_ASC_NODE":138.6483,"ARG_OF_PERICENTER":94.3438,"MEAN_ANOMALY":265.7879,"EPHEMERIS_TYPE":0,"CLASSIFICATION_TYPE":"U","NORAD_CAT_ID":65615,"ELEMENT_SET_NO":999,"REV_AT_EPOCH":2826,"BSTAR":0.00078086842,"MEAN_MOTION_DOT":0.00011236,"MEAN_MOTION_DDOT":0}]
